FLOCK 4H-34             
1 66737U 25276BZ  26196.74361214  .00004262  00000+0  19621-3 0  9998
2 66737  97.4230 270.1480 0002583 168.1404 191.9893 15.20843679 34024
FLOCK 4H-35             
1 66738U 25276CA  26196.19299276  .00003538  00000+0  16287-3 0  9996
2 66738  97.4192 269.5432 0002576 152.7589 207.3782 15.20954789 33984
FLOCK 4H-36             
1 66739U 25276CB  26196.75793828  .00004235  00000+0  19568-3 0  9991
2 66739  97.4239 270.1547 0002518 182.5737 177.5486 15.20724449 34779
