{"fetched_at":"2026-07-16T06:42:35.236Z","source":"https://celestrak.org/NORAD/elements/gp.php?GROUP=planet&FORMAT=JSON","constellation":"superdove","records":[{"OBJECT_NAME":"FLOCK 4H-34","OBJECT_ID":"2025-276BZ","EPOCH":"2026-07-15T17:50:48.088896","CLASSIFICATION_TYPE":"U","MEAN_MOTION":15.20843679,"ECCENTRICITY":0.00025838,"INCLINATION":97.423,"RA_OF_ASC_NODE":270.148,"ARG_OF_PERICENTER":168.1404,"MEAN_ANOMALY":191.9893,"EPHEMERIS_TYPE":0,"NORAD_CAT_ID":66737,"ELEMENT_SET_NO":999,"REV_AT_EPOCH":3402,"BSTAR":0.00019620841,"MEAN_MOTION_DOT":0.00004262,"MEAN_MOTION_DDOT":0},{"OBJECT_NAME":"FLOCK 4H-35","OBJECT_ID":"2025-276CA","EPOCH":"2026-07-15T04:37:54.574464","CLASSIFICATION_TYPE":"U","MEAN_MOTION":15.20954789,"ECCENTRICITY":0.00025768,"INCLINATION":97.4192,"RA_OF_ASC_NODE":269.5432,"ARG_OF_PERICENTER":152.7589,"MEAN_ANOMALY":207.3782,"EPHEMERIS_TYPE":0,"NORAD_CAT_ID":66738,"ELEMENT_SET_NO":999,"REV_AT_EPOCH":3398,"BSTAR":0.00016287258,"MEAN_MOTION_DOT":0.00003538,"MEAN_MOTION_DDOT":0},{"OBJECT_NAME":"FLOCK 4H-36","OBJECT_ID":"2025-276CB","EPOCH":"2026-07-15T18:11:25.867392","CLASSIFICATION_TYPE":"U","MEAN_MOTION":15.20724449,"ECCENTRICITY":0.00025181,"INCLINATION":97.4239,"RA_OF_ASC_NODE":270.1547,"ARG_OF_PERICENTER":182.5737,"MEAN_ANOMALY":177.5486,"EPHEMERIS_TYPE":0,"NORAD_CAT_ID":66739,"ELEMENT_SET_NO":999,"REV_AT_EPOCH":3477,"BSTAR":0.00019567621,"MEAN_MOTION_DOT":0.00004235,"MEAN_MOTION_DDOT":0}]}
